[
  {
    "OBJECT_NAME": "STARLINK-30882",
    "OBJECT_ID": "23178F",
    "EPOCH": "2025-11-11T00:41:36.553056",
    "MEAN_MOTION": 15.30198331,
    "ECCENTRICITY": 0.0001327,
    "INCLINATION": 53.1573,
    "RA_OF_ASC_NODE": 192.2609,
    "ARG_OF_PERICENTER": 87.8783,
    "MEAN_ANOMALY": 272.237,
    "EPHEMERIS_TYPE": 0,
    "CLASSIFICATION_TYPE": "U",
    "NORAD_CAT_ID": 58379,
    "ELEMENT_SET_NO": 999,
    "REV_AT_EPOCH": 11172,
    "BSTAR": 0.00010722,
    "MEAN_MOTION_DOT": 2.817e-05,
    "MEAN_MOTION_DDOT": 0.0,
    "TLE_LINE1": "1 58379U 23178F   25315.02889529  .00002817  00000+0  10722-3 0  9994",
    "TLE_LINE2": "2 58379  53.1573 192.2609 0001327  87.8783 272.2370 15.30198331111720",
    "COMMENT": "Grouped by shell and plane from TLE"
  },
  {
    "OBJECT_NAME": "STARLINK-30923",
    "OBJECT_ID": "23178H",
    "EPOCH": "2025-11-11T02:29:19.345632",
    "MEAN_MOTION": 15.30201536,
    "ECCENTRICITY": 0.0001023,
    "INCLINATION": 53.1605,
    "RA_OF_ASC_NODE": 191.9729,
    "ARG_OF_PERICENTER": 119.5826,
    "MEAN_ANOMALY": 240.5277,
    "EPHEMERIS_TYPE": 0,
    "CLASSIFICATION_TYPE": "U",
    "NORAD_CAT_ID": 58381,
    "ELEMENT_SET_NO": 999,
    "REV_AT_EPOCH": 11166,
    "BSTAR": 2.2155e-05,
    "MEAN_MOTION_DOT": 2.97e-06,
    "MEAN_MOTION_DDOT": 0.0,
    "TLE_LINE1": "1 58381U 23178H   25315.10369613  .00000297  00000+0  22155-4 0  9997",
    "TLE_LINE2": "2 58381  53.1605 191.9729 0001023 119.5826 240.5277 15.30201536111661",
    "COMMENT": "Grouped by shell and plane from TLE"
  },
  {
    "OBJECT_NAME": "STARLINK-30927",
    "OBJECT_ID": "23178J",
    "EPOCH": "2025-11-11T01:15:02.056032",
    "MEAN_MOTION": 15.30183464,
    "ECCENTRICITY": 0.0001599,
    "INCLINATION": 53.1609,
    "RA_OF_ASC_NODE": 192.4059,
    "ARG_OF_PERICENTER": 89.22,
    "MEAN_ANOMALY": 270.8984,
    "EPHEMERIS_TYPE": 0,
    "CLASSIFICATION_TYPE": "U",
    "NORAD_CAT_ID": 58382,
    "ELEMENT_SET_NO": 999,
    "REV_AT_EPOCH": 11170,
    "BSTAR": 0.00020748,
    "MEAN_MOTION_DOT": 5.787e-05,
    "MEAN_MOTION_DDOT": 0.0,
    "TLE_LINE1": "1 58382U 23178J   25315.05210713  .00005787  00000+0  20748-3 0  9992",
    "TLE_LINE2": "2 58382  53.1609 192.4059 0001599  89.2200 270.8984 15.30183464111700",
    "COMMENT": "Grouped by shell and plane from TLE"
  },
  {
    "OBJECT_NAME": "STARLINK-30921",
    "OBJECT_ID": "23178K",
    "EPOCH": "2025-11-11T00:50:43.548000",
    "MEAN_MOTION": 15.30213273,
    "ECCENTRICITY": 0.0001217,
    "INCLINATION": 53.1556,
    "RA_OF_ASC_NODE": 192.3033,
    "ARG_OF_PERICENTER": 77.5686,
    "MEAN_ANOMALY": 282.5451,
    "EPHEMERIS_TYPE": 0,
    "CLASSIFICATION_TYPE": "U",
    "NORAD_CAT_ID": 58383,
    "ELEMENT_SET_NO": 999,
    "REV_AT_EPOCH": 11170,
    "BSTAR": 0.00041371999999999996,
    "MEAN_MOTION_DOT": 0.00011919,
    "MEAN_MOTION_DDOT": 0.0,
    "TLE_LINE1": "1 58383U 23178K   25315.03522625  .00011919  00000+0  41372-3 0  9999",
    "TLE_LINE2": "2 58383  53.1556 192.3033 0001217  77.5686 282.5451 15.30213273111709",
    "COMMENT": "Grouped by shell and plane from TLE"
  },
  {
    "OBJECT_NAME": "STARLINK-30825",
    "OBJECT_ID": "23178L",
    "EPOCH": "2025-11-11T02:01:58.470528",
    "MEAN_MOTION": 15.30198849,
    "ECCENTRICITY": 0.0001385,
    "INCLINATION": 53.1617,
    "RA_OF_ASC_NODE": 191.873,
    "ARG_OF_PERICENTER": 98.6105,
    "MEAN_ANOMALY": 261.5052,
    "EPHEMERIS_TYPE": 0,
    "CLASSIFICATION_TYPE": "U",
    "NORAD_CAT_ID": 58384,
    "ELEMENT_SET_NO": 999,
    "REV_AT_EPOCH": 11173,
    "BSTAR": 7.6738e-05,
    "MEAN_MOTION_DOT": 1.914e-05,
    "MEAN_MOTION_DDOT": 0.0,
    "TLE_LINE1": "1 58384U 23178L   25315.08470452  .00001914  00000+0  76738-4 0  9994",
    "TLE_LINE2": "2 58384  53.1617 191.8730 0001385  98.6105 261.5052 15.30198849111730",
    "COMMENT": "Grouped by shell and plane from TLE"
  },
  {
    "OBJECT_NAME": "STARLINK-30930",
    "OBJECT_ID": "23178M",
    "EPOCH": "2025-11-11T01:46:46.633440",
    "MEAN_MOTION": 15.30205501,
    "ECCENTRICITY": 7.58e-05,
    "INCLINATION": 53.1613,
    "RA_OF_ASC_NODE": 191.8277,
    "ARG_OF_PERICENTER": 70.1521,
    "MEAN_ANOMALY": 289.9561,
    "EPHEMERIS_TYPE": 0,
    "CLASSIFICATION_TYPE": "U",
    "NORAD_CAT_ID": 58385,
    "ELEMENT_SET_NO": 999,
    "REV_AT_EPOCH": 11160,
    "BSTAR": 7.171900000000001e-05,
    "MEAN_MOTION_DOT": 1.766e-05,
    "MEAN_MOTION_DDOT": 0.0,
    "TLE_LINE1": "1 58385U 23178M   25315.07415085  .00001766  00000+0  71719-4 0  9994",
    "TLE_LINE2": "2 58385  53.1613 191.8277 0000758  70.1521 289.9561 15.30205501111602",
    "COMMENT": "Grouped by shell and plane from TLE"
  },
  {
    "OBJECT_NAME": "STARLINK-30929",
    "OBJECT_ID": "23178N",
    "EPOCH": "2025-11-11T01:42:20.589696",
    "MEAN_MOTION": 15.30194596,
    "ECCENTRICITY": 0.0001408,
    "INCLINATION": 53.1576,
    "RA_OF_ASC_NODE": 192.3171,
    "ARG_OF_PERICENTER": 92.0961,
    "MEAN_ANOMALY": 268.0201,
    "EPHEMERIS_TYPE": 0,
    "CLASSIFICATION_TYPE": "U",
    "NORAD_CAT_ID": 58386,
    "ELEMENT_SET_NO": 999,
    "REV_AT_EPOCH": 11170,
    "BSTAR": 0.0,
    "MEAN_MOTION_DOT": -8.88e-06,
    "MEAN_MOTION_DDOT": 0.0,
    "TLE_LINE1": "1 58386U 23178N   25315.07107164 -.00000888  00000+0 -17850-4 0  9993",
    "TLE_LINE2": "2 58386  53.1576 192.3171 0001408  92.0961 268.0201 15.30194596111705",
    "COMMENT": "Grouped by shell and plane from TLE"
  },
  {
    "OBJECT_NAME": "STARLINK-30898",
    "OBJECT_ID": "23178P",
    "EPOCH": "2025-11-11T01:28:40.662336",
    "MEAN_MOTION": 15.30201658,
    "ECCENTRICITY": 0.0001395,
    "INCLINATION": 53.1587,
    "RA_OF_ASC_NODE": 192.3379,
    "ARG_OF_PERICENTER": 78.5578,
    "MEAN_ANOMALY": 281.5579,
    "EPHEMERIS_TYPE": 0,
    "CLASSIFICATION_TYPE": "U",
    "NORAD_CAT_ID": 58387,
    "ELEMENT_SET_NO": 999,
    "REV_AT_EPOCH": 11172,
    "BSTAR": 3.587600000000001e-05,
    "MEAN_MOTION_DOT": 7.03e-06,
    "MEAN_MOTION_DDOT": 0.0,
    "TLE_LINE1": "1 58387U 23178P   25315.06158174  .00000703  00000+0  35876-4 0  9992",
    "TLE_LINE2": "2 58387  53.1587 192.3379 0001395  78.5578 281.5579 15.30201658111724",
    "COMMENT": "Grouped by shell and plane from TLE"
  },
  {
    "OBJECT_NAME": "STARLINK-30913",
    "OBJECT_ID": "23178Q",
    "EPOCH": "2025-11-11T02:43:00.467904",
    "MEAN_MOTION": 15.30199986,
    "ECCENTRICITY": 0.0001219,
    "INCLINATION": 53.1606,
    "RA_OF_ASC_NODE": 192.0755,
    "ARG_OF_PERICENTER": 112.4342,
    "MEAN_ANOMALY": 247.6788,
    "EPHEMERIS_TYPE": 0,
    "CLASSIFICATION_TYPE": "U",
    "NORAD_CAT_ID": 58388,
    "ELEMENT_SET_NO": 999,
    "REV_AT_EPOCH": 11173,
    "BSTAR": 2.682e-05,
    "MEAN_MOTION_DOT": 4.35e-06,
    "MEAN_MOTION_DDOT": 0.0,
    "TLE_LINE1": "1 58388U 23178Q   25315.11319986  .00000435  00000+0  26820-4 0  9990",
    "TLE_LINE2": "2 58388  53.1606 192.0755 0001219 112.4342 247.6788 15.30199986111730",
    "COMMENT": "Grouped by shell and plane from TLE"
  },
  {
    "OBJECT_NAME": "STARLINK-30938",
    "OBJECT_ID": "23178R",
    "EPOCH": "2025-11-11T01:11:59.988768",
    "MEAN_MOTION": 15.30198497,
    "ECCENTRICITY": 0.0001693,
    "INCLINATION": 53.1605,
    "RA_OF_ASC_NODE": 192.3909,
    "ARG_OF_PERICENTER": 88.8864,
    "MEAN_ANOMALY": 271.2331,
    "EPHEMERIS_TYPE": 0,
    "CLASSIFICATION_TYPE": "U",
    "NORAD_CAT_ID": 58389,
    "ELEMENT_SET_NO": 999,
    "REV_AT_EPOCH": 11172,
    "BSTAR": 3.7762e-05,
    "MEAN_MOTION_DOT": 7.59e-06,
    "MEAN_MOTION_DDOT": 0.0,
    "TLE_LINE1": "1 58389U 23178R   25315.04999987  .00000759  00000+0  37762-4 0  9994",
    "TLE_LINE2": "2 58389  53.1605 192.3909 0001693  88.8864 271.2331 15.30198497111727",
    "COMMENT": "Grouped by shell and plane from TLE"
  },
  {
    "OBJECT_NAME": "STARLINK-30868",
    "OBJECT_ID": "23178S",
    "EPOCH": "2025-11-11T00:59:50.068608",
    "MEAN_MOTION": 15.30206749,
    "ECCENTRICITY": 9.2e-05,
    "INCLINATION": 53.1624,
    "RA_OF_ASC_NODE": 192.3407,
    "ARG_OF_PERICENTER": 105.5006,
    "MEAN_ANOMALY": 254.6096,
    "EPHEMERIS_TYPE": 0,
    "CLASSIFICATION_TYPE": "U",
    "NORAD_CAT_ID": 58390,
    "ELEMENT_SET_NO": 999,
    "REV_AT_EPOCH": 11172,
    "BSTAR": 2.894e-05,
    "MEAN_MOTION_DOT": 4.98e-06,
    "MEAN_MOTION_DDOT": 0.0,
    "TLE_LINE1": "1 58390U 23178S   25315.04155172  .00000498  00000+0  28940-4 0  9994",
    "TLE_LINE2": "2 58390  53.1624 192.3407 0000920 105.5006 254.6096 15.30206749111723",
    "COMMENT": "Grouped by shell and plane from TLE"
  },
  {
    "OBJECT_NAME": "STARLINK-30916",
    "OBJECT_ID": "23178T",
    "EPOCH": "2025-11-11T01:19:34.159872",
    "MEAN_MOTION": 15.30197882,
    "ECCENTRICITY": 0.000138,
    "INCLINATION": 53.1602,
    "RA_OF_ASC_NODE": 192.3225,
    "ARG_OF_PERICENTER": 95.7016,
    "MEAN_ANOMALY": 264.4142,
    "EPHEMERIS_TYPE": 0,
    "CLASSIFICATION_TYPE": "U",
    "NORAD_CAT_ID": 58391,
    "ELEMENT_SET_NO": 999,
    "REV_AT_EPOCH": 11172,
    "BSTAR": 2.234e-05,
    "MEAN_MOTION_DOT": 3.02e-06,
    "MEAN_MOTION_DDOT": 0.0,
    "TLE_LINE1": "1 58391U 23178T   25315.05525648  .00000302  00000+0  22340-4 0  9997",
    "TLE_LINE2": "2 58391  53.1602 192.3225 0001380  95.7016 264.4142 15.30197882111728",
    "COMMENT": "Grouped by shell and plane from TLE"
  },
  {
    "OBJECT_NAME": "STARLINK-30939",
    "OBJECT_ID": "23178V",
    "EPOCH": "2025-11-11T02:20:13.249248",
    "MEAN_MOTION": 15.30196809,
    "ECCENTRICITY": 0.0001187,
    "INCLINATION": 53.1586,
    "RA_OF_ASC_NODE": 191.9751,
    "ARG_OF_PERICENTER": 92.4875,
    "MEAN_ANOMALY": 267.6262,
    "EPHEMERIS_TYPE": 0,
    "CLASSIFICATION_TYPE": "U",
    "NORAD_CAT_ID": 58393,
    "ELEMENT_SET_NO": 999,
    "REV_AT_EPOCH": 11160,
    "BSTAR": 1.1675000000000001e-05,
    "MEAN_MOTION_DOT": -1.3e-07,
    "MEAN_MOTION_DDOT": 0.0,
    "TLE_LINE1": "1 58393U 23178V   25315.09737557 -.00000013  00000+0  11675-4 0  9996",
    "TLE_LINE2": "2 58393  53.1586 191.9751 0001187  92.4875 267.6262 15.30196809111605",
    "COMMENT": "Grouped by shell and plane from TLE"
  }
]